NORAD_CAT_ID,OBJECT_NAME,OBJECT_TYPE,EPOCH,MEAN_MOTION,ECCENTRICITY,INCLINATION,RA_OF_ASC_NODE,ARG_OF_PERICENTER,MEAN_ANOMALY,BSTAR,MEAN_MOTION_DOT,MEAN_MOTION_DDOT,TLE_LINE0,TLE_LINE1,TLE_LINE2,SEMIMAJOR_AXIS,PERIOD,APOGEE,PERIGEE,DECAYED
53901.0,STARLINK-5024,PAYLOAD,2023-04-17 03:24:09,15.08845494,0.0001187,53.2177,31.433,75.2508,284.8616,0.00020031,2.902e-05,0.0,0 STARLINK-5024,1 53901U 22119R   23107.14177745  .00002902  00000-0  20031-3 0  9994,2 53901  53.2177  31.4330 0001187  75.2508 284.8616 15.08845494 31617,6917.864,95.437,540.55,538.907,0.0
53901.0,STARLINK-5024,PAYLOAD,2023-04-17 04:59:32,15.08847849,0.0001171,53.2175,31.1344,73.9845,286.1276,0.00028261,4.214e-05,0.0,0 STARLINK-5024,1 53901U 22119R   23107.20801722  .00004214  00000-0  28261-3 0  9991,2 53901  53.2175  31.1344 0001171  73.9845 286.1276 15.08847849 32040,6917.856,95.437,540.531,538.911,0.0
53901.0,STARLINK-5024,PAYLOAD,2023-04-17 19:18:01,15.08837147,0.0001313,53.2178,28.4579,69.2729,290.8404,8.7859e-05,1.111e-05,0.0,0 STARLINK-5024,1 53901U 22119R   23107.80418423  .00001111  00000-0  87859-4 0  9991,2 53901  53.2178  28.4579 0001313  69.2729 290.8404 15.08837147 31717,6917.889,95.438,540.662,538.846,0.0
53901.0,STARLINK-5024,PAYLOAD,2023-04-18 01:39:33,15.08852271,0.0001073,53.2171,27.2686,74.047,286.064,0.0003749,5.686e-05,0.0,0 STARLINK-5024,1 53901U 22119R   23108.06913735  .00005686  00000-0  37490-3 0  9992,2 53901  53.2171  27.2686 0001073  74.0470 286.0640 15.08852271 31754,6917.843,95.437,540.45,538.966,0.0
53901.0,STARLINK-5024,PAYLOAD,2023-04-18 03:14:56,15.08854848,0.0001116,53.2173,26.9706,73.1445,286.967,0.00048345,7.418e-05,0.0,0 STARLINK-5024,1 53901U 22119R   23108.13537676  .00007418  00000-0  48345-3 0  9992,2 53901  53.2173  26.9706 0001116  73.1445 286.9670 15.08854848 32187,6917.835,95.437,540.472,538.928,0.0
53901.0,STARLINK-5024,PAYLOAD,2023-04-18 19:08:48,15.08838108,0.0001536,53.2184,23.9977,80.3807,279.7358,5.6064e-05,6.04e-06,0.0,0 STARLINK-5024,1 53901U 22119R   23108.79778285  .00000604  00000-0  56064-4 0  9995,2 53901  53.2184  23.9977 0001536  80.3807 279.7358 15.08838108 32289,6917.886,95.438,540.814,538.689,0.0
53901.0,STARLINK-5024,PAYLOAD,2023-04-19 03:05:43,15.08851047,0.0001013,53.2177,22.5117,98.6873,261.4234,0.00053458,8.233e-05,0.0,0 STARLINK-5024,1 53901U 22119R   23109.12897866  .00008233  00000-0  53458-3 0  9999,2 53901  53.2177  22.5117 0001013  98.6873 261.4234 15.08851047 31914,6917.847,95.437,540.412,539.011,0.0
53901.0,STARLINK-5024,PAYLOAD,2023-04-20 02:56:31,15.08836102,0.0001255,53.2168,18.0489,99.5387,260.5747,0.00040056,6.092e-05,0.0,0 STARLINK-5024,1 53901U 22119R   23110.12258847  .00006092  00000-0  40056-3 0  9992,2 53901  53.2168  18.0489 0001255  99.5387 260.5747 15.08836102 32481,6917.892,95.438,540.625,538.889,0.0
53901.0,STARLINK-5024,PAYLOAD,2023-04-21 10:44:14,15.08841652,9.86e-05,53.2163,12.1049,75.528,284.5822,0.00040319,6.135e-05,0.0,0 STARLINK-5024,1 53901U 22119R   23111.44739317  .00006135  00000-0  40319-3 0  9994,2 53901  53.2163  12.1049 0000986  75.5280 284.5822 15.08841652 32687,6917.875,95.437,540.422,539.058,0.0
53901.0,STARLINK-5024,PAYLOAD,2023-04-21 17:05:47,15.0884364,0.0001083,53.2172,10.9149,78.208,281.9033,0.00026322,3.904e-05,0.0,0 STARLINK-5024,1 53901U 22119R   23111.71235129  .00003904  00000-0  26322-3 0  9995,2 53901  53.2172  10.9149 0001083  78.2080 281.9033 15.08843640 32720,6917.869,95.437,540.483,538.985,0.0
53901.0,STARLINK-5024,PAYLOAD,2023-04-22 02:38:05,15.0885414,0.0001252,53.2162,9.132,72.0455,288.0674,0.00042999,6.565e-05,0.0,0 STARLINK-5024,1 53901U 22119R   23112.10978734  .00006565  00000-0  42999-3 0  9999,2 53901  53.2162   9.1320 0001252  72.0455 288.0674 15.08854140 32788,6917.837,95.437,540.568,538.836,0.0
53901.0,STARLINK-5024,PAYLOAD,2023-04-22 23:18:05,15.08855851,0.0001129,53.2174,5.2652,66.5995,293.5116,0.00022979,3.373e-05,0.0,0 STARLINK-5024,1 53901U 22119R   23112.97090147  .00003373  00000-0  22979-3 0  9997,2 53901  53.2174   5.2652 0001129  66.5995 293.5116 15.08855851 32496,6917.832,95.437,540.478,538.916,0.0
53901.0,STARLINK-5024,PAYLOAD,2023-04-23 16:47:20,15.08845287,9.9e-05,53.2157,1.9937,67.0804,293.0293,6.6082e-05,7.64e-06,0.0,0 STARLINK-5024,1 53901U 22119R   23113.69954326  .00000764  00000-0  66082-4 0  9990,2 53901  53.2157   1.9937 0000990  67.0804 293.0293 15.08845287 32602,6917.864,95.437,540.414,539.044,0.0
53901.0,STARLINK-5024,PAYLOAD,2023-04-24 02:19:38,15.08854669,0.0001224,53.2172,0.2092,93.7083,266.4049,0.00021405,3.122e-05,0.0,0 STARLINK-5024,1 53901U 22119R   23114.09697741  .00003122  00000-0  21405-3 0  9990,2 53901  53.2172   0.2092 0001224  93.7083 266.4049 15.08854669 33089,6917.836,95.437,540.547,538.854,0.0
53901.0,STARLINK-5024,PAYLOAD,2023-04-24 22:59:38,15.08879241,0.0001274,53.2178,356.3424,99.7193,260.3943,0.00070943,0.00011033,0.0,0 STARLINK-5024,1 53901U 22119R   23114.95808024  .00011033  00000-0  70943-3 0  9994,2 53901  53.2178 356.3424 0001274  99.7193 260.3943 15.08879241 33216,6917.76,95.435,540.507,538.744,0.0
53901.0,STARLINK-5024,PAYLOAD,2023-04-26 05:12:02,15.08771061,0.0001244,53.2169,350.6957,100.6727,259.4405,-0.0008342,-0.00013514,0.0,0 STARLINK-5024,1 53901U 22119R   23116.21669185 -.00013514  00000-0 -83420-3 0  9990,2 53901  53.2169 350.6957 0001244 100.6727 259.4405 15.08771061 33400,6918.091,95.442,540.817,539.096,0.0
53901.0,STARLINK-5024,PAYLOAD,2023-04-26 22:41:16,15.08829683,0.0001574,53.2162,347.4273,124.1582,235.956,0.00089598,0.00013996,0.0,0 STARLINK-5024,1 53901U 22119R   23116.94533047  .00013996  00000-0  89598-3 0  9991,2 53901  53.2162 347.4273 0001574 124.1582 235.9560 15.08829683 33511,6917.912,95.438,540.866,538.688,0.0
53901.0,STARLINK-5024,PAYLOAD,2023-04-27 01:52:02,15.08839438,0.000133,53.2185,346.8302,104.1145,255.9995,0.00099243,0.00015542,0.0,0 STARLINK-5024,1 53901U 22119R   23117.07780875  .00015542  00000-0  99243-3 0  9996,2 53901  53.2185 346.8302 0001330 104.1145 255.9995 15.08839438 33530,6917.882,95.438,540.667,538.827,0.0
53901.0,STARLINK-5024,PAYLOAD,2023-04-28 00:07:25,15.0888101,9.92e-05,53.2166,342.6676,98.401,261.7095,0.0010163,0.00015942,0.0,0 STARLINK-5024,1 53901U 22119R   23118.00515441  .00015942  00000-0  10163-2 0  9992,2 53901  53.2166 342.6676 0000992  98.4010 261.7095 15.08881010 33254,6917.755,95.435,540.306,538.934,0.0
53901.0,STARLINK-5024,PAYLOAD,2023-04-28 08:04:20,15.0886068,0.0001508,53.2167,341.181,82.2608,277.8556,0.00011584,1.557e-05,0.0,0 STARLINK-5024,1 53901U 22119R   23118.33635317  .00001557  00000-0  11584-3 0  9999,2 53901  53.2167 341.1810 0001508  82.2608 277.8556 15.08860680 33303,6917.817,95.436,540.725,538.639,0.0
53901.0,STARLINK-5024,PAYLOAD,2023-04-28 22:22:48,15.08854843,9.43e-05,53.2183,338.5036,83.7234,276.3865,-4.6097e-05,-1.022e-05,0.0,0 STARLINK-5024,1 53901U 22119R   23118.93250548 -.00001022  00000-0 -46097-4 0  9991,2 53901  53.2183 338.5036 0000943  83.7234 276.3865 15.08854843 33394,6917.835,95.437,540.352,539.048,0.0
53901.0,STARLINK-5024,PAYLOAD,2023-04-29 23:48:58,15.08852166,0.0001154,53.2176,333.7449,79.95,280.1623,-0.00010104,-1.896e-05,0.0,0 STARLINK-5024,1 53901U 22119R   23119.99234495 -.00001896  00000-0 -10104-3 0  9999,2 53901  53.2176 333.7449 0001154  79.9500 280.1623 15.08852166 33558,6917.843,95.437,540.507,538.91,0.0
53901.0,STARLINK-5024,PAYLOAD,2023-04-30 18:53:37,15.08836479,0.0001108,53.2174,330.1791,71.8188,288.2925,2.966e-05,1.84e-06,0.0,0 STARLINK-5024,1 53901U 22119R   23120.78723488  .00000184  00000-0  29660-4 0  9998,2 53901  53.2174 330.1791 0001108  71.8188 288.2925 15.08836479 33675,6917.891,95.438,540.523,538.99,0.0
53901.0,STARLINK-5024,PAYLOAD,2023-04-30 23:39:46,15.08838386,0.0001148,53.2179,329.2831,83.2422,276.8701,0.00015846,2.235e-05,0.0,0 STARLINK-5024,1 53901U 22119R   23120.98595402  .00002235  00000-0  15846-3 0  9992,2 53901  53.2179 329.2831 0001148  83.2422 276.8701 15.08838386 34121,6917.885,95.438,540.544,538.956,0.0
53901.0,STARLINK-5024,PAYLOAD,2023-05-01 20:19:47,15.08841845,0.0001171,53.2177,325.4178,99.4513,260.6612,0.00010001,1.304e-05,0.0,0 STARLINK-5024,1 53901U 22119R   23121.84707395  .00001304  00000-0  10001-3 0  9998,2 53901  53.2177 325.4178 0001171  99.4513 260.6612 15.08841845 34257,6917.875,95.437,540.55,538.93,0.0
53901.0,STARLINK-5024,PAYLOAD,2023-05-01 23:30:33,15.08844312,0.0001154,53.2177,324.8231,106.7223,253.3896,0.00015462,2.174e-05,0.0,0 STARLINK-5024,1 53901U 22119R   23121.97955245  .00002174  00000-0  15462-3 0  9993,2 53901  53.2177 324.8231 0001154 106.7223 253.3896 15.08844312 33851,6917.867,95.437,540.531,538.934,0.0
53901.0,STARLINK-5024,PAYLOAD,2023-05-02 16:59:48,15.08840305,0.0001178,53.2177,321.5529,95.615,264.4977,7.8657e-05,9.64e-06,0.0,0 STARLINK-5024,1 53901U 22119R   23122.70819489  .00000964  00000-0  78657-4 0  9995,2 53901  53.2177 321.5529 0001178  95.6150 264.4977 15.08840305 33969,6917.879,95.438,540.559,538.93,0.0
53901.0,STARLINK-5024,PAYLOAD,2023-05-03 00:56:43,15.08848907,0.0001144,53.218,320.0653,101.5707,258.5413,0.00015206,2.134e-05,0.0,0 STARLINK-5024,1 53901U 22119R   23123.03938786  .00002134  00000-0  15206-3 0  9995,2 53901  53.2180 320.0653 0001144 101.5707 258.5413 15.08848907 34015,6917.853,95.437,540.51,538.927,0.0
53901.0,STARLINK-5024,PAYLOAD,2023-05-03 05:42:53,15.08828107,0.0001165,53.2177,319.1737,93.4368,266.6757,-0.00013298,-2.403e-05,0.0,0 STARLINK-5024,1 53901U 22119R   23123.23811982 -.00002403  00000-0 -13298-3 0  9995,2 53901  53.2177 319.1737 0001165  93.4368 266.6757 15.08828107 34042,6917.917,95.438,540.588,538.976,0.0
53901.0,STARLINK-5024,PAYLOAD,2023-05-03 20:01:21,15.08838359,0.0001065,53.2179,316.4973,96.5441,263.5672,3.7384e-05,3.07e-06,0.0,0 STARLINK-5024,1 53901U 22119R   23123.83427996  .00000307  00000-0  37384-4 0  9991,2 53901  53.2179 316.4973 0001065  96.5441 263.5672 15.08838359 34133,6917.885,95.438,540.487,539.014,0.0
